ID,NAME,PHONE,STREET,CITY,STATE,ZIP,FACILITY,result_num,status,formatted_,place_id,location_t,Latitude,Longitude
0,Community Hlth Ctr of Southern IA,(641) 932-2065,117 South Main Street,Albia,Iowa,52531,MH SUMH OP TELE CMHC BMT CBT CFT DBT IPT PTM TT PVTN FQHC CLF MC MD MI PI SF SI SS COOT FPSY SPS STU SMPD ADLT CHLD SNR YAD AH,0,OK,"117 S Main St, Albia, IA 52531, USA",ChIJA7WG_RfH6IcR_UQfIOYit3M,ROOFTOP,41.0255687,-92.8073191
1,Eyerly Ball Community MH Services Story County Outpatient Clinic,(515) 241-0982,2521 University Boulevard Suite 121,Ames,Iowa,50010,MH SUMH OP TELE CMHC BMT CBT CFT DBT GT IPT PTM TT CIT PVTN CLF CMHG CSBG MC MD MI OSF PI SCJJ SF SI SMHA SWFS VAF COOT FPSY SMON ADLT CHLD SNR YAD AH,0,OK,"2521 University Blvd #121, Ames, IA 50010, USA",Ei4yNTIxIFVuaXZlcnNpdHkgQmx2ZCAjMTIxLCBBbWVzLCBJQSA1MDAxMCwgVVNBIiQaIgobEhkKFAoSCcUj4cpBeu6HEfSkgOL2xCd6ENkTEgMxMjE,RANGE_INTERPOLATED,41.999659,-93.64024839999999
2,Lutheran Services in Iowa Inc,(515) 232-7262,1323 NW Avenue,Ames,Iowa,50010,MH OP RES RTCC AT BMT CBT CFT GT IPT PTM TT PVTN CLF MD OSF PI SCJJ SF SI SMHA SWFS CJ TRMA PTSD SED CM ES FPSY IPC SMON CHLD AH,0,OK,"Ames, IA, USA",ChIJa6A0RmJw7ocRAFLHPAhWMSc,APPROXIMATE,42.0307812,-93.63191309999999
3,Mary Greeley Medical Center Behavioral Health Unit,(515) 239-2610,1111 Duff Avenue,Ames,Iowa,50010,MH SUMH HI TELE PSY AT CBT DBT ECT GT IPT PTM CIT WI PVTN CLF MC MD MI PI SF SI VAF SE CO SMI NRT NSC STU TCC SMON ADLT SNR YAD AH,0,OK,"1111 Duff Ave, Ames, IA 50010, USA",ChIJa8wYYGVw7ocR16yTJY9Fz4s,ROOFTOP,42.0328049,-93.6118077
4,Richmond Center,(515) 232-5811,1619 South High Avenue,Ames,Iowa,50010,MH SUMH OP TELE OMH AT BMT CBT CFT DBT GT IDD IPT PTM TT PVTN CLF MC MD MI PI SCJJ SF SI SWFS VAF SS CO COOT ES FPSY SPS NRT NSC STU TCC SMON ADLT CHLD SNR YAD AH,0,OK,"1619 S High Ave, Ames, IA 50010, USA",ChIJ4WnNXJF67ocRKpwAbG8HCRg,ROOFTOP,42.0074127,-93.6076729
5,Cass County Memorial Hospital Behavioral Health Unit,(712) 250-8865,1501 East 10th Street,Atlantic,Iowa,50022,MH HI TELE PSY AT CBT GT IPT PTM TT PVTN CLF CMHG CSBG ITU MC MD MI OSF PI SCJJ SEF SF SI SMHA SWFS VAF TAY SE GL VET ADM MF CJ CO HV ALZ PED PTSD SED SMI DEC NRT NSC STU TCC SMON ADLT CHLD SNR YAD AH,0,OK,"1501 E 10th St, Atlantic, IA 50022, USA",ChIJ0b4EZ-6z7IcRaZDedqbuO1s,ROOFTOP,41.4012457,-94.9911102
6,Southwest Iowa Mental Health Center,(712) 243-2606,1500 East 10th Street,Atlantic,Iowa,50022,MH OP CMHC CBT CFT GT IPT PTM TT CIT PVTN CLF MC MD MI PI SCJJ SEF SF SI SMHA VAF PA SS SED SMI COOT SMON ADLT CHLD SNR YAD AH SP,0,OK,"1500 E 10th St, Atlantic, IA 50022, USA",ChIJffq_xO2z7IcRGtQrXWSlqTg,ROOFTOP,41.402606,-94.9922472
7,Richmond Center,(515) 433-0369,1332 South Marshall Street,Boone,Iowa,50036,MH SUMH OP TELE OMH AT BMT CBT CFT DBT GT IDD IPT PTM TT PVTN CLF MC MD MI PI SCJJ SF SI SWFS VAF COOT ES FPSY SPS NRT NSC STU TCC SMON ADLT CHLD SNR YAD AH,0,OK,"1332 S Marshall St, Boone, IA 50036, USA",ChIJffdkpe_a7YcRPVOiaK-iMnI,ROOFTOP,42.0407066,-93.8777313
8,Catholic Charities Diocese of Sioux City,(712) 792-9597,409 1/2 West 7th,Carroll,Iowa,51401,MH OP OMH BMT CBT CFT IPT TT CIT PVTN CLF MC MD PI SCJJ SF SI SWFS PA SS TRMA PTSD COOT ES SMON ADLT CHLD SNR YAD,0,OK,"409 W 7th St, Carroll, IA 51401, USA",ChIJ5TZiP5M57YcRl2FrwvQM7qg,ROOFTOP,42.0676734,-94.8717353
9,Counseling Services LLC,(712) 662-3222,322 East 6th Street,Carroll,Iowa,51401,MH SUMH OP OMH CBT CFT IPT TT PVTP CLF CMHG CSBG ITU MC MD MI OSF PI SCJJ SF SI SMHA SWFS VAF PA SS COOT SMPD ADLT CHLD SNR YAD,0,OK,"322 E 6th St, Carroll, IA 51401, USA",ChIJbVuWHZA57YcRGVcfqe0TZH0,ROOFTOP,42.064417,-94.8633
10,Plains Area Mental Health Center,(712) 792-2991,318 South Maple Street Suite 1,Carroll,Iowa,51401,MH SUMH OP TELE CMHC AT BMT CBT CFT DBT GT IDD IPT PTM TT CIT WI PVTN CLF CMHG CSBG MC MD MI OSF PI SF SI CM COOT ES FPSY IPC PEER STU SMPD ADLT CHLD SNR YAD AH,0,OK,"318 S Maple St #1, Carroll, IA 51401, USA",EikzMTggUyBNYXBsZSBTdCAjMSwgQ2Fycm9sbCwgSUEgNTE0MDEsIFVTQSIdGhsKFgoUChIJlxpzsok57YcRpxrYhm0L7iMSATE,ROOFTOP,42.056164,-94.8652719
11,St Anthony Regional Hospital St Anthony Mental Health Services,(712) 794-5435,311 South Clark Street,Carroll,Iowa,51401,MH SUMH OP OMH AT BMT GT PTM TT CIT WI PVTN MC MD PI SF SI COOT ES SPS NRT NSC STU TCC SMON ADLT CHLD SNR YAD,0,OK,"311 S Clark St, Carroll, IA 51401, USA",ChIJc_wUo4k57YcRaPfFlkDMh1U,GEOMETRIC_CENTER,42.0565188,-94.8660012
12,MercyOne Cedar Falls Medical Center,(319) 268-3800,515 College Street,Cedar Falls,Iowa,50613,MH SUMH HI PSY CBT DBT GT IPT PTM TT PVTN CLF MC MD OSF PI SF SI SMHA SE ALZ CDM IPC SPS NRT NSC STU TCC SMON ADLT SNR AH,0,OK,"515 College St, Cedar Falls, IA 50613, USA",ChIJz90Ye6iq-ocRo2yxgTgpRn8,ROOFTOP,42.5336466,-92.4580897
13,Abbe Ctr for Comm Mental Health,(319) 398-3562,520 11th Street NW,Cedar Rapids,Iowa,52405,MH SUMH OP CMHC CBT CFT DBT GT IDD IPT PTM TT WI PVTN CLF CMHG CSBG MC MD MI OSF PI SCJJ SEF SF SI SMHA SWFS VAF SMI ACT COOT FPSY PRS PEER STU TCC SMPD ADLT CHLD SNR YAD SP,0,OK,"520 11th St NW, Cedar Rapids, IA 52405, USA",ChIJMURSMvD55IcRRsXCxEWTP1A,ROOFTOP,41.9774703,-91.6880662
14,Four Oaks Family and Childrens Service,(319) 364-0259,5400 Kirkwood Boulevard SW,Cedar Rapids,Iowa,52404,MH OP RES TELE RTCC AT BMT CBT DBT GT IDD IPT PTM TT PVTN MD PI SCJJ SEF SF SMHA SWFS SED CM FPSY SH SMON CHLD AH SP,0,OK,"5400 Kirkwood Blvd SW, Cedar Rapids, IA 52404, USA",ChIJn81pcun35IcReZLp6WfWlwQ,ROOFTOP,41.9218665,-91.6592802
15,Saint Lukes Counseling Center,(319) 369-7952,225 Coe Road NE,Cedar Rapids,Iowa,52402,MH SUMH OP OMH AT BMT CBT CFT DBT GT IDD IPT TT PVTN CLF MC MD MI PI SF PED CDM COOT DEC ES FPSY IPC SMON ADLT CHLD SNR YAD AH,0,OK,"225 Coe Rd NE, Cedar Rapids, IA 52402, USA",ChIJ3cOTLkv35IcRhqb8FiZzj-Q,ROOFTOP,41.9866492,-91.6594702
16,Tanager Place,(319) 365-9164,2309 C Street SW,Cedar Rapids,Iowa,52404,MH OP RES TELE RTCC AT BMT CBT DBT GT IPT PTM TT PVTN CLF MD OSF PI SF SI GL TRMA PTSD SED ICM SMON CHLD,0,OK,"2309 C St SW, Cedar Rapids, IA 52404, USA",ChIJC-hm7Q_35IcR5LUwmDe9gzc,ROOFTOP,41.9563364,-91.64757019999999
17,UnityPoint Health Childrens Specialty Services,(319) 558-4900,4050 River Ridge Drive NE,Cedar Rapids,Iowa,52402,MH PHDT PH AT CBT DBT GT TT PVTN ITU MC MD MI PI SF SI SMHA VAF SED COOT FPSY SMON CHLD YAD AH,0,OK,"4050 River Ridge Dr NE, Cedar Rapids, IA 52402, USA",ChIJURipGVz65IcRoaLGm6bod-s,ROOFTOP,42.0205632,-91.69938309999999
18,UnityPoint Health Partial Hospitalization,(319) 369-8176,810 First Avenue NE,Cedar Rapids,Iowa,52403,MH SUMH OP PHDT PH AT CBT DBT GT TT PVTN CLF MC MD MI PI SF SI SMHA VAF SMI STU SMPD ADLT SNR YAD AH,0,OK,"810 1st Ave NE, Cedar Rapids, IA 52402, USA",ChIJf4B7DEz35IcRUYrYho1aMHY,ROOFTOP,41.9830772,-91.66183629999999
19,UnityPoint Health St Lukes Hospital Psychiatric Services,(319) 369-7211,1026 A Avenue NE,Cedar Rapids,Iowa,52402,MH SUMH HI PSY AT CBT CFT DBT ECT GT IPT PTM TT WI PVTN CLF MC MD MI PI SF SI SMHA SE ALZ PED SED SMI ES STU TCC SMON ADLT CHLD SNR YAD AH,0,OK,"1026 A Ave NE, Cedar Rapids, IA 52402, USA",ChIJwWNdbEv35IcR9ap_6bZ3AwM,ROOFTOP,41.9853036,-91.66043220000002
20,Community Hlth Ctr of Southern IA,(641) 856-6471,221 East State Street,Centerville,Iowa,52544,MH SUMH OP TELE CMHC BMT CBT CFT DBT IDD IPT PTM TT CIT PVTN FQHC CLF MC MD MI PI SF SI SS CO COOT FPSY SPS STU SMPD ADLT CHLD SNR YAD AH,0,OK,"221 E State St, Centerville, IA 52544, USA",ChIJHyHDNpHx6IcRgeYy2eTXjpU,ROOFTOP,40.7344369,-92.8722459
21,Community Hlth Ctr of Southern IA,(641) 774-8484,1711 Osceola Avenue Suite 115,Chariton,Iowa,50049,MH SUMH OP TELE CMHC BMT CBT CFT DBT IPT PTM TT PVTN FQHC CLF MC MD MI PI SF SI SS COOT FPSY SPS STU SMPD ADLT CHLD SNR YAD AH,0,OK,"1711 Osceola Ave #115, Chariton, IA 50049, USA",Ei4xNzExIE9zY2VvbGEgQXZlICMxMTUsIENoYXJpdG9uLCBJQSA1MDA0OSwgVVNBIh8aHQoWChQKEglprg34xzvphxG1VAbjL9ZhdRIDMTE1,ROOFTOP,41.02145,-93.318778
22,Mental Health Institute,(712) 225-2594,1251 West Cedar Loop,Cherokee,Iowa,51012,MH HI PSY AT BMT PTM TT WI OSG CLF MC MD PI SI SED SMI CM DEC ES FPSY IMR IPC PRS SPS NRT NSC STU TCC SMON ADLT CHLD SNR YAD AH SP,0,OK,"1251 W Cedar Loop, Cherokee, IA 51012, USA",ChIJvcomWGUNjYcRctBDDHJGrOQ,ROOFTOP,42.75709639999999,-95.57211310000001
23,Plains Area Mental Health Center,(712) 225-2575,900 North 2nd Street,Cherokee,Iowa,51012,MH SUMH OP TELE CMHC AT BMT CBT CFT DBT GT IDD IPT PTM TT CIT WI PVTN CLF CMHG CSBG MC MD MI OSF PI SF SI CM COOT ES FPSY IPC PEER STU SMPD ADLT CHLD SNR YAD AH,0,OK,"900 N 2nd St, Cherokee, IA 51012, USA",ChIJ7-rqco8SjYcRaf6358adqr0,ROOFTOP,42.7617603,-95.5499976
24,Southwest Iowa Families Inc,(712) 542-3501,215 East Washington Street,Clarinda,Iowa,51632,MH SUMH OP OMH AT BMT CBT CFT DBT GT IDD IPT TT PVTN CLF MC MD MI OSF PI SCJJ SF SI SMHA SWFS VAF SED SMPD ADLT CHLD SNR YAD,0,OK,"215 E Washington St, Clarinda, IA 51632, USA",ChIJxQ7kChcz64cRuJKl5h_mOJE,ROOFTOP,40.7391257,-95.0361677
25,MercyOne Clinton Medical Center Behavioral Health Care,(563) 244-5555,1410 North 4th Street,Clinton,Iowa,52732,MH HI TELE PSY AT PTM PVTN CLF MC MD MI PI SF SI SMHA SWFS SMI CDM SPS NRT STU SMON ADLT SNR YAD AH,0,OK,"1410 N 4th St, Clinton, IA 52732, USA",ChIJpTdsS6Bj4ocR4Pdctjoypbw,GEOMETRIC_CENTER,41.861474,-90.1890143
26,Community Hlth Ctr of Southern IA,(641) 872-1750,102-104 North Franklin Street,Corydon,Iowa,50060,MH SUMH OP TELE CMHC BMT CBT CFT DBT IPT PTM TT PVTN FQHC CLF MC MD MI PI SF SI SS COOT FPSY SPS STU SMPD ADLT CHLD SNR YAD AH SP,0,OK,"102 N Franklin St, Corydon, IA 50060, USA",EikxMDIgTiBGcmFua2xpbiBTdCwgQ29yeWRvbiwgSUEgNTAwNjAsIFVTQSIaEhgKFAoSCbGB7ornEemHEbYZCwjvyBPeEGY,RANGE_INTERPOLATED,40.7577778,-93.31920079999999
27,Health Mercy Mercy McDermott,(402) 717-4674,800 Mercy Drive,Council Bluffs,Iowa,51503,HOPE MH SUMH HI PHDT PSY AT BMT CBT CFT DBT GT IDD IPT PTM TT PVTN CLF CMHG CSBG MC MD MI OSF PI SCJJ SEF SF SWFS VAF CO CDM CM DEC ES FPSY IMR IPC LAD SPS PEER NRT NSC STU SMON ADLT CHLD SNR YAD AHCHI,0,OK,"800 Mercy Dr, Council Bluffs, IA 51503, USA",ChIJh3vc9OuEk4cRGyQNTyhMpWI,GEOMETRIC_CENTER,41.2684748,-95.83939989999999
28,Health Psychiatric Associates Mercy,(712) 328-2609,801 Harmony Street Suite 302,Council Bluffs,Iowa,51503,HOPE MH SUMH OP OMH BMT CBT CFT DBT GT IDD IPT PTM TT PVTN CLF CMHG CSBG MC MD MI OSF PI SCJJ SF SI SMHA SWFS VAF CM COOT ES FPSY IPC SPS SMON ADLT CHLD SNR YAD AH,0,OK,"801 Harmony St #302, Council Bluffs, IA 51503, USA",EjI4MDEgSGFybW9ueSBTdCAjMzAyLCBDb3VuY2lsIEJsdWZmcywgSUEgNTE1MDMsIFVTQSIfGh0KFgoUChIJy0uN9uuEk4cRVOPINmspX7kSAzMwMg,ROOFTOP,41.2691279,-95.838763
29,Christian Home Association Childrens Square USA North,(712) 322-3700,6th Street and Avenue E,Council Bluffs,Iowa,51502,MH OP RES RTCC BMT CBT CFT DBT GT IPT PTM TT PVTN MD MI PI SF SI SED CM COOT ES FPSY SMON CHLD,0,OK,"N 6th St & Avenue E, Council Bluffs, IA 51503, USA",EjJOIDZ0aCBTdCAmIEF2ZW51ZSBFLCBDb3VuY2lsIEJsdWZmcywgSUEgNTE1MDMsIFVTQSJmImQKFAoSCUvnypbjhJOHEYr9WkQi3YlxEhQKEglL58qW44SThxGK_VpEIt2JcRoUChIJH-NwbeOEk4cRXyrhubrVquwaFAoSCckNjb3jhJOHEeKVzYUVpBpUIgoN6LOYGBXrHN7G,GEOMETRIC_CENTER,41.2660712,-95.8522133
30,Heartland Family Service H Lee Gendler Center,(712) 322-1407,515 East Broadway,Council Bluffs,Iowa,51503,MH SUMH OP OMH AT BMT CBT CFT DBT GT IDD IPT PTM TT CIT WI PVTN MC MD PI SF SI PA SS CO TRMA PTSD ACT CDM CM COOT ES FPSY HS ICM IMR IPC SPS PEER NSC STU TCC SMON ADLT CHLD SNR YAD,0,OK,"515 E Broadway, Council Bluffs, IA 51503, USA",ChIJC1nwxe2Ek4cRBsWOnQ4QEEw,ROOFTOP,41.2651563,-95.83976009999999
31,Methodist Jennie Edmundson Hospital Behavioral Health,(712) 396-6044,933 East Pierce Street,Council Bluffs,Iowa,51503,MH SUMH HI PSY AT CFT ECT GT IDD PTM TT PVTN CLF CMHG CSBG MC MD MI OSF PI SF SI SMHA VAF CO CM DEC ES SPS NRT STU TCC SMON ADLT SNR YAD AH,0,OK,"933 E Pierce St, Council Bluffs, IA 51503, USA",ChIJCdh5TpOEk4cRnDly04ycW3k,ROOFTOP,41.26854640000001,-95.8347527
32,Northeast Iowa Mental Health Center,(563) 382-3649,112 North Elm Street,Cresco,Iowa,52136,MH SUMH OP TELE CMHC CBT CFT DBT GT IDD IPT TT PVTN CLF CMHG CSBG MC MD MI OSF PI SCJJ SEF SF SI SMHA SWFS SS CM COOT ICM STU TCC SMON ADLT CHLD SNR YAD AH,0,OK,"112 N Elm St, Cresco, IA 52136, USA",ChIJVeMTIDpC-ocRhpWTBqfQUXY,ROOFTOP,43.3727251,-92.11685469999999
33,Crossroads Behavioral Health Services,(641) 782-8457,1003 Cottonwood Road,Creston,Iowa,50801,MH SUMH OP TELE CMHC AT BMT CBT CFT DBT GT IDD IPT PTM TT CIT WI PVTN FQHC CLF CMHG CSBG MC MD MI OSF PI SCJJ SF SI SMHA SWFS VAF PA SS TAY SE GL VET ADM MF CJ CO HV TRMA TBI ALZ PED PTSD SED SMI CM COOT ES FPSY SPS PEER STU TCC SMON ADLT CHLD SNR YAD AH,0,OK,"1003 Cottonwood Rd, Creston, IA 50801, USA",ChIJQYvLqI-C64cRX7tZCXLPMUc,ROOFTOP,41.0691932,-94.38532459999999
34,Genesis Medical Center West Central Park,(563) 421-2990,1401 West Central Park Avenue,Davenport,Iowa,52804,MH SUMH HI OP PHDT PSY AT CBT DBT ECT GT IDD IPT PTM TT CIT WI PVTN CLF MC MD MI PI SF CO PTSD SED SMI CM DEC ES FPSY IMR SPS NRT NSC STU TCC SMON ADLT CHLD SNR YAD AH,0,OK,"1401 W Central Park Ave, Davenport, IA 52804, USA",ChIJ1ynv3cg04ocRoWPI3l5jgTA,ROOFTOP,41.543537,-90.59402759999999
35,Terrace Ridge,(563) 823-3460,4626 Progress Drive Suite D,Davenport,Iowa,52807,MH SUMH OP CMHC BMT CBT DBT GT IPT PTM CIT WI PVTN CLF CMHG CSBG ITU MC MD MI OSF PI SCJJ SEF SF SI SMHA SWFS VAF SED SMI CM COOT ES FPSY ICM IMR PRS SPS PEER NSC STU TCC SMPD ADLT CHLD SNR YAD AH,0,OK,"4626 Progress Dr Suite D, Davenport, IA 52807, USA",EjI0NjI2IFByb2dyZXNzIERyIFN1aXRlIEQsIERhdmVucG9ydCwgSUEgNTI4MDcsIFVTQSIjGiEKFgoUChIJqz0QXXo24ocRAdU_jmHCBHkSB1N1aXRlIEQ,ROOFTOP,41.5686967,-90.5191737
36,Vera French Community MH Center,(563) 383-1900,1441 West Central Park Avenue,Davenport,Iowa,52804,MH SUMH OP CMHC BMT CBT CFT DBT GT IPT PTM CIT WI PVTN CLF CMHG CSBG MC MD MI OSF PI SCJJ SEF SF SI SMHA SWFS VAF SED SMI ACT COOT ES FPSY IMR PRS SPS PEER NSC STU TCC SMPD ADLT CHLD SNR YAD AH SP,0,OK,"1441 W Central Park Ave, Davenport, IA 52804, USA",ChIJIQz9zM404ocReaRqf0cRegs,ROOFTOP,41.5448404,-90.59514639999999
37,Vera French Sheridan Springs,(563) 345-6670,5006 Sheridan Street,Davenport,Iowa,52806,MH RES RTCA AT BMT GT IDD IPT PTM PVTN CLF MD SF SI SMI CDM COOT DEC IMR LAD PRS SEMP SPS NSC STU TCC SMPD ADLT SNR YAD AH,0,OK,"5006 Sheridan St, Davenport, IA 52806, USA",ChIJM_uoQxA14ocRCqofhxpeIys,ROOFTOP,41.5711977,-90.57473089999999
38,Northeast Iowa Behavioral Health,(563) 382-3649,905 Montgomery Street,Decorah,Iowa,52101,MH SUMH OP TELE CMHC BMT CBT CFT DBT GT IDD IPT PTM TT PVTN CLF CMHG CSBG MC MD MI OSF PI SCJJ SEF SF SI SMHA SWFS SS CM COOT ICM SPS STU SMON ADLT CHLD SNR YAD AH SP,0,OK,"905 Montgomery St, Decorah, IA 52101, USA",ChIJOQ8zUsCt-4cRMYj5CjvohVE,ROOFTOP,43.2945279,-91.77117580000001
39,Penn Center RCF,(563) 922-2881,2237 245th Street,Delhi,Iowa,52223,MH SUMH RES RTCA GT IPT PTM PVTN CLF MI OSF PI SF SMHA VAF SMI COOT DEC IPC SPS NRT NSC STU TCC SMPD ADLT SNR YAD,0,OK,"2237 245th St, Delhi, IA 52223, USA",ChIJkVxO-S-u5IcRZZLSKmCoN_8,ROOFTOP,42.4347257,-91.3568952
40,Plains Area Mental Health Center,(712) 263-3172,515 Highway 39,Denison,Iowa,51442,MH SUMH OP TELE CMHC AT BMT CBT CFT DBT GT IDD IPT PTM TT CIT WI PVTN CLF CMHG CSBG MC MD MI OSF PI SF SI CM COOT ES FPSY IPC PEER STU SMPD ADLT CHLD SNR YAD AH,0,OK,"515 IA-39, Denison, IA 51442, USA",ChIJ4_E3OCPCkocRY_JPvbObG10,ROOFTOP,42.0227605,-95.3692178
41,Broadlawns Medical Center Center for Mental Health,(515) 282-2200,1801 Hickman Road,Des Moines,Iowa,50314,MH SUMH HI OP RES PSY AT BMT CBT DBT ECT GT IDD IPT PTM TT CIT WI PVTN CLF CMHG CSBG MC MD MI PI SF SI SMHA PA SS CO SMI CM COOT DEC SPS NSC STU TCC SMON ADLT YAD AH,0,OK,"1801 Hickman Rd, Des Moines, IA 50314, USA",ChIJv1FPnV2Z7ocRHDpEzaPta1Q,ROOFTOP,41.616506,-93.64214969999999
42,Eyerly Ball Community MH Services,(515) 241-0982,945 19th Street,Des Moines,Iowa,50314,MH OP TELE CMHC BMT CBT CFT GT IDD IPT PTM TT CIT PVTN CLF CMHG MC MD MI PI SF SI VAF SS CJ CO PTSD ACT CM COOT DEC FPSY IPC PRS SEMP SH VRS PEER SMPD ADLT SNR YAD AH SP,0,OK,"945 19th St, Des Moines, IA 50314, USA",ChIJc51PYD2Z7ocR24MBF4gRTBc,ROOFTOP,41.5948717,-93.64212719999999
43,Eyerly Ball Residential,(515) 279-1015,5631 Francis Avenue,Des Moines,Iowa,50310,MH SUMH RES RTCA BMT CBT DBT GT IPT PTM TT PVTN CLF CMHG MC MD SF SI SMHA SMI FPSY STU SMPD ADLT SNR YAD,0,OK,"5631 Francis Ave, Des Moines, IA 50310, USA",ChIJ73asrYWe7ocRvb9kWFKa5l4,ROOFTOP,41.6140712,-93.6958049
44,Eyerly Ball Residential Cummins House,(515) 277-7933,940 Cummins Parkway,Des Moines,Iowa,50312,MH RES RTCA AT CBT DBT GT IPT PTM TT PVTN CLF MC MD SF SMI FPSY STU SMPD ADLT SNR YAD,0,OK,"940 Cummins Pkwy, Des Moines, IA 50312, USA",ChIJdYV6JPae7ocRNujy1Fc7UPo,ROOFTOP,41.595013,-93.7024641
45,Iowa Lutheran Hospital Behavioral Health Services,(515) 263-5230,700 East University Avenue,Des Moines,Iowa,50316,MH HI OP PHDT PSY AT CBT CFT ECT GT IPT PTM CIT WI PVTN CLF MC MD MI PI SF SE CM COOT DEC PRS SPS NRT NSC STU TCC SMON ADLT CHLD SNR YAD,0,OK,"700 E University Ave, Des Moines, IA 50316, USA",ChIJJbTUu7yZ7ocRJUP9zrsdfIo,GEOMETRIC_CENTER,41.60142,-93.6097501
46,Mercy Medical Center Mercy Behavioral Health,(515) 271-6111,1111 6th Avenue,Des Moines,Iowa,50314,MH HI OP PHDT TELE PSY AT CBT CFT DBT GT IPT PTM TT CIT WI PVTN MC MD MI PI SF SI ES FPSY STU SMON ADLT CHLD SNR YAD AH,0,OK,"1111 6th Ave, Des Moines, IA 50314, USA",ChIJ71oIBgqZ7ocR0U3kELrkthw,ROOFTOP,41.5986713,-93.6228884
47,MercyOne Des Moines First Step Recovery,(515) 271-6075,1750 48th Street Suite 2,Des Moines,Iowa,50310,MH SUMH OP OMH AT BMT CBT CFT DBT GT IDD IPT PTM CIT PVTN MC MD MI PI SF SI CO COOT FPSY IMR SPS PEER STU TCC SMON ADLT CHLD SNR YAD,0,OK,"1750 48th St #2, Des Moines, IA 50310, USA",EioxNzUwIDQ4dGggU3QgIzIsIERlcyBNb2luZXMsIElBIDUwMzEwLCBVU0EiHRobChYKFAoSCdfvKsyXnu6HEZxzzhpJPyBjEgEy,ROOFTOP,41.6099111,-93.68347969999999
48,Orchard Place Child Guidance Center,(515) 244-2267,808 5th Avenue,Des Moines,Iowa,50309,MH OP TELE CMHC AT CBT CFT GT IDD IPT PTM TT PVTN CLF CMHG MD MI OSF PI SCJJ SEF SF SMHA SWFS PA SS TRMA SED COOT FPSY SPS SMPD CHLD YAD AH,0,OK,"808 5th Ave, Des Moines, IA 50309, USA",ChIJ3X8mVwaZ7ocRqIF_qDDExhM,ROOFTOP,41.5918329,-93.6248674
49,Orchard Place PACE,(515) 697-5700,620 8th Street,Des Moines,Iowa,50309,MH OP OMH BMT CBT GT IPT TT PVTN CLF MC MD MI PI SCJJ SF SI SWFS TAY MF CO TRMA SED CM COOT ES FPSY IPC STU SMON CHLD YAD AH SP,0,OK,"620 8th St, Des Moines, IA 50309, USA",ChIJb6e-kQOZ7ocRf9trHqNRBXQ,ROOFTOP,41.5884091,-93.62846929999999
50,Orchard Place,(515) 285-6781,925 Porter Avenue,Des Moines,Iowa,50315,MH SUMH RES RTCC AT CBT CFT DBT GT IPT PTM TT PVTN MD MI PI SF SI GL MF CO TRMA PTSD SED CM DEC ES FPSY SMON CHLD SP,0,OK,"925 Porter Ave, Des Moines, IA 50315, USA",ChIJtyxLVnui7ocRRlecr92ROkE,GEOMETRIC_CENTER,41.5347825,-93.6274797
51,Hillcrest Family Services,(563) 582-0145,200 Mercy Drive,Dubuque,Iowa,52001,MH SUMH OP TELE CMHC CBT CFT DBT GT IPT PTM TT CIT WI PVTN CLF CMHG CSBG MC MD MI OSF PI SCJJ SF SI SMHA SWFS COOT SPS STU SMON ADLT CHLD SNR YAD,0,OK,"200 Mercy Dr, Dubuque, IA 52001, USA",ChIJaQaon4sr44cRI_Sr-XJMV_w,ROOFTOP,42.4925309,-90.6747809
52,Hillcrest Family Services  Asbury,(563) 583-7357,2005 Asbury Road,Dubuque,Iowa,52001,MH SUMH OP CMHC CBT CFT DBT GT IPT TT CIT PVTN CLF CMHG CSBG MC MD MI OSF PI SCJJ SF SI SMHA SWFS COOT SPS STU SMON ADLT CHLD SNR YAD,0,OK,"2005 Asbury Rd, Dubuque, IA 52001, USA",ChIJgd6Telks44cRkWSAYy5MV6U,ROOFTOP,42.5052444,-90.70292320000001
53,MercyOne Dubuque Medical Center Psychiatric Services,(563) 589-9299,250 Mercy Drive,Dubuque,Iowa,52001,MH SUMH HI PSY AT ECT GT IPT PTM PVTN MC MD MI PI SF SI SMHA VAF SED CM DEC NRT NSC STU TCC SMON ADLT CHLD SNR YAD AH,0,OK,"250 Mercy Dr, Dubuque, IA 52001, USA",ChIJC1tIB4sr44cRjnzA1yfj5fw,ROOFTOP,42.492721,-90.6750809
54,Unitypoint Finley Hospital Behavioral Health,(563) 589-2566,350 North Grandview Street,Dubuque,Iowa,52002,MH HI OP PHDT PSY AT BMT CBT CFT DBT GT IPT PTM TT PVTN MC MD MI PI SF SI SE TRMA ALZ PTSD NRT NSC STU TCC SMON ADLT SNR YAD AH,0,OK,"350 N Grandview Ave, Dubuque, IA 52001, USA",ChIJy5yEwXEs44cRl3Ejt9abMf0,ROOFTOP,42.4962806,-90.6859143
55,UnityPoint Health Finley Hospital,(563) 582-1881,350 North Grandview Avenue,Dubuque,Iowa,52001,MH HI OP PSY AT CBT CFT GT IPT PTM TT PVTN MC MD MI PI SI SE TRMA ALZ PTSD CDM CM SPS NRT STU TCC SMON ADLT SNR YAD AH SP,0,OK,"350 N Grandview Ave, Dubuque, IA 52001, USA",ChIJy5yEwXEs44cRl3Ejt9abMf0,ROOFTOP,42.4962806,-90.6859143
56,Northeast Iowa Mental Health Center,(563) 382-3649,911 Carter Street NW,Elkader,Iowa,52043,MH SUMH OP CMHC BMT CBT CFT DBT GT IDD IPT TT PVTN CLF CMHG CSBG MC MD MI OSF PI SCJJ SEF SF SI SMHA SWFS SS COOT STU SMON ADLT CHLD SNR YAD AH,0,OK,"911 Carter St NW, Elkader, IA 52043, USA",ChIJn56XANpp-4cRN-mRa8Cs520,ROOFTOP,42.860173,-91.414524
57,Seasons Center for Behavioral Health Palo Alto County Office,(800) 242-5101,3201 1st Street,Emmetsburg,Iowa,50536,MH OP CMHC CBT CFT DBT IPT TT PVTN CLF CMHG MC MD MI OSF PI SF SI SMHA VAF SS COOT SPS SMON ADLT CHLD SNR YAD,0,OK,"3201 1st St, Emmetsburg, IA 50536, USA",ChIJHxnp1AYf84cRyO4MRsSeX40,GEOMETRIC_CENTER,43.1202069,-94.69187149999999
58,Seasons Center for Behavioral Health Emmet County Office,(800) 242-5101,826 North 8th Street,Estherville,Iowa,51334,MH OP CMHC CBT CFT DBT IPT TT PVTN CLF CMHG MC MD MI OSF PI SF SI SMHA VAF SS COOT SPS SMON ADLT CHLD SNR YAD,0,OK,"826 N 8th St, Estherville, IA 51334, USA",ChIJJ2o8nhdH84cR95Lb9n3WtoM,ROOFTOP,43.4095751,-94.8337105
59,Prairie View Management Inc,(563) 422-5606,18569 Lane Road,Fayette,Iowa,52142,MH SUMH RES RTCA AT BMT CBT GT PTM CIT PVTN CLF SF PA CJ CO SMI PRS SMPD ADLT SNR YAD,0,OK,"18569 Lane Rd, Fayette, IA 52142, USA",ChIJPXvAASge-4cRNp6ZEh4Rd5Y,ROOFTOP,42.8976714,-91.8317593
60,Catholic Charities Diocese of Sioux City,(515) 576-4156,3 North 17th Street Suite 1,Fort Dodge,Iowa,50501,MH OP OMH BMT CBT CFT DBT IPT TT CIT PVTN CLF MC MD PI SCJJ SF SI SWFS PA SS TRMA PTSD COOT ES FPSY SMON ADLT CHLD SNR YAD,0,OK,"3 N 17th St #1, Fort Dodge, IA 50501, USA",EikzIE4gMTd0aCBTdCAjMSwgRm9ydCBEb2RnZSwgSUEgNTA1MDEsIFVTQSIdGhsKFgoUChIJE8ir_Fx28ocR12Vzba3L-2QSATE,ROOFTOP,42.5064117,-94.1746945
61,Children and Families of Iowa,(515) 573-2193,111 Avenue O West,Fort Dodge,Iowa,50501,MH SUMH OP TELE OMH AT BMT CBT CFT DBT GT IDD IPT PTM TT PVTN CLF MD MI OSF PI SF SI SMHA SWFS SS CO PTSD SED CM COOT FPSY PRS SPS VRS TCC SMPD ADLT CHLD SNR YAD SP,0,OK,"111 Ave O W, Fort Dodge, IA 50501, USA",EiYxMTEgQXZlIE8gVywgRm9ydCBEb2RnZSwgSUEgNTA1MDEsIFVTQSIaEhgKFAoSCdP3eIjDd_KHEWW0dGpf6m6cEG8,RANGE_INTERPOLATED,42.4866643,-94.2078252
62,Community and Family Resources,(515) 576-7261,211 Avenue M West,Fort Dodge,Iowa,50501,MH SUMH OP TELE OMH AT CBT CFT GT IDD IPT PTM TT PVTN MC MD MI PI SCJJ SF SI SMHA SWFS VAF CO COOT ES FPSY NRT STU TCC SMON ADLT CHLD SNR YAD AH,0,OK,"211 Ave M W, Fort Dodge, IA 50501, USA",ChIJJ-MgJMJ38ocRKaP4PnfFzWU,ROOFTOP,42.4881919,-94.2111396
63,Richmond Center,(515) 232-5811,211 Avenue M West,Fort Dodge,Iowa,50501,MH SUMH OP TELE OMH AT BMT CBT CFT DBT GT IDD IPT PTM TT PVTN CLF MC MD MI PI SCJJ SF SI SWFS VAF CO COOT ES FPSY SPS NRT NSC STU TCC SMON ADLT CHLD SNR YAD AH,0,OK,"211 Ave M W, Fort Dodge, IA 50501, USA",ChIJJ-MgJMJ38ocRKaP4PnfFzWU,ROOFTOP,42.4881919,-94.2111396
64,UnityPoint Health Berryhill Center,(800) 482-8305,720 Kenyon Road,Fort Dodge,Iowa,50501,MH SUMH OP TELE CMHC AT BMT CBT CFT DBT GT IDD IPT PTM TT CIT WI PVTN CLF CMHG CSBG MC MD MI OSF PI SCJJ SEF SF SI SMHA SWFS VAF SS CO PTSD SED SMI ACT CDM CM COOT DEC ES FPSY ICM IMR IPC PRS SPS PEER STU TCC SMON ADLT CHLD SNR YAD AH,0,OK,"720 Kenyon Rd, Fort Dodge, IA 50501, USA",ChIJq6qaYMt38ocR7q2yjUk5T1U,ROOFTOP,42.4893382,-94.1936606
65,Counseling Associates,(319) 372-3141,1014 Avenue H Suite 1,Fort Madison,Iowa,52627,MH SUMH OP OMH CBT CFT GT IDD IPT TT CIT PVTP CLF MC MD MI PI SCJJ SF SI CM SPS SMPD ADLT CHLD SNR YAD,0,OK,"1014 Ave H #1, Fort Madison, IA 52627, USA",EioxMDE0IEF2ZSBIICMxLCBGb3J0IE1hZGlzb24sIElBIDUyNjI3LCBVU0EiHRobChYKFAoSCR0l2FIm1uaHEfjC9U9-ZF1aEgEx,ROOFTOP,40.6297901,-91.31608519999999
66,Myrtue Medical Center Behavioral Health,(712) 755-5056,1303 Garfield Avenue,Harlan,Iowa,51537,MH SUMH OP TELE OMH AT CBT CFT DBT GT IPT TT CIT WI PVTP CLF CMHG CSBG ITU MC MD MI OSF PI SCJJ SEF SF SI SMHA SWFS VAF CO COOT FPSY PRS SPS PEER NRT STU TCC SMON ADLT CHLD SNR YAD SP,0,OK,"1303 Garfield Ave, Harlan, IA 51537, USA",ChIJaYL0IEYjk4cRakGHMe1WZUA,ROOFTOP,41.6474852,-95.3274267
67,Plains Area Mental Health Center,(712) 364-3500,700 East 2nd Street Suite 2,Ida Grove,Iowa,51445,MH SUMH OP TELE CMHC AT BMT CBT CFT DBT GT IDD IPT PTM TT CIT WI PVTN CLF CMHG CSBG MC MD MI OSF PI SF SI CM COOT ES FPSY IPC PEER STU SMON ADLT CHLD SNR YAD AH,0,OK,"700 E 2nd St #2, Ida Grove, IA 51445, USA",Eik3MDAgRSAybmQgU3QgIzIsIElkYSBHcm92ZSwgSUEgNTE0NDUsIFVTQSIdGhsKFgoUChIJn4JAIkqZkocRFYXq65s2DD0SATI,ROOFTOP,42.33833569999999,-95.45797460000001
68,Abbe Ctr for Comm Mental Health,(319) 334-4010,2349 Jamestown Avenue Suite 5,Independence,Iowa,50644,MH SUMH OP CMHC CBT CFT IPT PTM TT PVTN CLF CSBG MC MD MI PI SCJJ SF SI SMHA SWFS VAF STU SMPD ADLT CHLD SNR YAD,0,OK,"2349 Jamestown Ave #5, Independence, IA 50644, USA",EjIyMzQ5IEphbWVzdG93biBBdmUgIzUsIEluZGVwZW5kZW5jZSwgSUEgNTA2NDQsIFVTQSIdGhsKFgoUChIJwwKPol0p5YcRxkec0x7FZvESATU,ROOFTOP,42.4500361,-91.8916471
69,Mental Health Institute,(319) 334-2583,2277 Iowa Avenue,Independence,Iowa,50644,MH HI PSY AT CBT CFT GT IPT PTM TT CIT SMA CLF MC MD MI OSF PI SEF SF SI SMHA SED SMI CDM DEC ES FPSY NRT NSC STU TCC SMON ADLT CHLD SNR YAD AH,0,OK,"2277 Iowa Ave, Independence, IA 50644, USA",EioyMjc3IElvd2EgQXZlLCBJbmRlcGVuZGVuY2UsIElBIDUwNjQ0LCBVU0EiGxIZChQKEgk1Ln9UGyzlhxGcDoXqqXKrcxDlEQ,RANGE_INTERPOLATED,42.4614243,-91.91966479999999
70,Abbe Ctr for Comm Mental Health,(319) 338-7884,1039 Arthur Street,Iowa City,Iowa,52240,MH SUMH OP CMHC CBT CFT IPT PTM PVTN CLF CMHG CSBG MC MD MI OSF PI SCJJ SF STU SMPD ADLT CHLD SNR YAD,0,OK,"1039 Arthur St, Iowa City, IA 52240, USA",ChIJu5H0I0Fq5IcRtyGuPZ-oMNk,ROOFTOP,41.64844,-91.497585
71,Chatham Oaks,(319) 887-2701,4515 Melrose Avenue,Iowa City,Iowa,52246,MH SUMH RES RTCA AT BMT GT IPT PTM PVTN CLF SF SMHA VAF CDM CM COOT IMR LAD PRS SPS NRT NSC TCC SMPD ADLT SNR YAD,0,OK,"4515 Melrose Ave, Iowa City, IA 52246, USA",ChIJk0fmwLNG5IcRBqVkKG3ZdLs,ROOFTOP,41.6564904,-91.6022232
72,Iowa City VA Healthcare System Mental Health Service Line,(319) 338-0581,601 Highway 6 West,Iowa City,Iowa,52246,MH SUMH HI OP TELE AT BMT CBT CFT DBT ECT GT IDD IPT PTM TT WI VAMC MI PI VAF VET ACT CDM CM COOT DEC FPSY HS ICM IMR IPC PRS SEMP SH SPS VRS PEER NRT NSC STU TCC SMON ADLT SNR YAD VO AH,0,OK,"601 US-6, Iowa City, IA 52246, USA",ChIJ6e83A49B5IcRbtaS9nUBscU,ROOFTOP,41.6636987,-91.547688
73,Mercy Hospital,(319) 339-0300,500 East Market Street,Iowa City,Iowa,52245,MH SUMH HI PSY AT BMT CBT DBT GT IPT PTM PVTN MC MD MI PI SF VAF TAY SE GL VET ADM MF CO TRMA PED PTSD SMI NRT NSC STU TCC SMON ADLT SNR YAD AH,0,OK,"500 E Market St, Iowa City, IA 52245, USA",ChIJ0Up5TvpB5IcRL_kz9z6rJCM,ROOFTOP,41.6641482,-91.5285792
74,University of Iowa Hospitals/Clinics UI Behavioral Health,(319) 356-1616,200 Hawkins Drive,Iowa City,Iowa,52242,MH SUMH HI OP PHDT TELE PSY AT BMT CBT CFT DBT ECT GT IDD IPT PTM TT CIT WI OSG CLF MC MD MI OSF PI SCJJ SEF SF SI SMHA SWFS VAF TAY SE GL VET MF CO ALZ PED PTSD SMI ACT CM COOT ES FPSY IPC NRT STU TCC SMON ADLT CHLD SNR YAD AH SP,0,OK,"200 Hawkins Dr, Iowa City, IA 52242, USA",ChIJRVEbnZBB5IcR_eIYOBQvOmU,ROOFTOP,41.6573931,-91.5487715
75,Youth Homes of Mid America,(515) 276-3473,7225 NW 58th Street,Johnston,Iowa,50131,MH SUMH OP TELE MSNH AT BMT CBT CFT DBT GT IDD IPT TT PVTN MD MI PI SCJJ SF SI SMHA SWFS PA SS TAY GL CO TRMA SED COOT ES FPSY PRS SPS TPC PEER SMPD ADLT CHLD SNR YAD,0,OK,"7225 NW 58th St, Johnston, IA 50131, USA",ChIJsbVjZ9Cc7ocRwKKPpNzAKzk,ROOFTOP,41.6921953,-93.6964022
76,Counseling Associates,(319) 524-0510,1522 Morgan Street,Keokuk,Iowa,52632,MH SUMH OP OMH CBT CFT GT IDD IPT TT CIT PVTP CLF MC MD MI PI SCJJ SF SI CM SPS SMPD ADLT CHLD SNR YAD,0,OK,"1522 Morgan St, Keokuk, IA 52632, USA",ChIJgwOOdEE654cRJSSVWdjIVi0,ROOFTOP,40.4066033,-91.3881236
77,Plains Area Mental Health Center,(712) 546-4624,180 10th Street SE Suite 201,Le Mars,Iowa,51031,MH SUMH OP TELE CMHC AT BMT CBT CFT DBT GT IDD IPT PTM TT CIT WI PVTN CLF CMHG CSBG MC MD MI OSF PI SF SI CM COOT ES FPSY IPC PEER STU SMPD ADLT CHLD SNR YAD AH SP,0,OK,"180 10th St SE #201, Le Mars, IA 51031, USA",EisxODAgMTB0aCBTdCBTRSAjMjAxLCBMZSBNYXJzLCBJQSA1MTAzMSwgVVNBIh8aHQoWChQKEgkN4NyzCMSNhxE7zpJsuTwtVhIDMjAx,ROOFTOP,42.7806809,-96.1642157
78,Heartland Family Service Logan Office,(712) 644-2946,107 North 4th Avenue Suite A,Logan,Iowa,51546,MH SUMH OP OMH BMT CBT CFT DBT GT IDD IPT TT CIT PVTN CLF CMHG CSBG MC MD MI OSF PI SF SWFS SS TAY SE GL VET CJ CO TRMA PTSD SED SMI CM COOT ES FPSY HS SEMP SPS STU TCC SMON ADLT CHLD SNR YAD AH,0,OK,"107 N 4th Ave Suite A, Logan, IA 51546, USA",EisxMDcgTiA0dGggQXZlIFN1aXRlIEEsIExvZ2FuLCBJQSA1MTU0NiwgVVNBIiMaIQoWChQKEgnlnFYY76iThxEkbj78xVtxDhIHU3VpdGUgQQ,ROOFTOP,41.6431009,-95.786469
79,Abbe Ctr for Comm Mental Health,(563) 927-6700,721 South 5th Street,Manchester,Iowa,52057,MH SUMH OP CMHC BMT CBT CFT IPT PTM TT WI PVTN CLF CMHG CSBG MC MD MI PI SCJJ SF SI CDM COOT IMR STU SMPD ADLT CHLD SNR YAD,0,OK,"721 S 5th St, Manchester, IA 52057, USA",ChIJSy-WzT205IcR3Ee6vnvRil4,ROOFTOP,42.4771672,-91.46502129999999
80,Hillcrest Family Services Jackson County Mental Health Center,(563) 652-4958,117 South Olive Street,Maquoketa,Iowa,52060,MH SUMH OP CMHC CBT CFT DBT IPT PTM TT CIT PVTN CLF CMHG CSBG MC MD MI OSF PI SCJJ SF SI SMHA SWFS COOT SPS STU SMON ADLT CHLD SNR YAD,0,OK,"117 S Olive St, Maquoketa, IA 52060, USA",ChIJ7QN6I08D44cRWSAQYJPV4BI,ROOFTOP,42.06836089999999,-90.66399990000001
81,Center Associates,(641) 752-1585,9 North 4th Avenue,Marshalltown,Iowa,50158,MH OP TELE CMHC BMT CBT CFT GT IPT PTM TT PVTN CLF CMHG ITU MC MD MI OSF PI SCJJ SF SI SMHA SWFS VAF SMPD ADLT CHLD SNR YAD SP,0,OK,"9 N 4th Ave, Marshalltown, IA 50158, USA",ChIJV7dHQtC674cRRwD1lEDY064,ROOFTOP,42.0500888,-92.90597129999999
82,MercyOne Medical Center North Iowa Behavioral Health Inpatient Department,(641) 428-7000,1000 4th Street SW,Mason City,Iowa,50401,MH SUMH HI OP PHDT PSY AT CBT CFT DBT GT IPT PTM TT PVTN CLF MC MD MI PI SCJJ SEF SF SI SMHA SWFS VAF SED CM COOT ES FPSY ICM IPC SMON ADLT CHLD SNR YAD AH,0,OK,"1000 4th St SW, Mason City, IA 50401, USA",ChIJ3focxAoH8YcRK_53FwYsuI0,ROOFTOP,43.1500243,-93.21654819999999
83,North Iowa Transition Center,(641) 424-8708,408 1st Street NW,Mason City,Iowa,50401,MH SUMH OP RES RTCA AT BMT CBT GT PTM PVTN CLF MD SF SMI IMR PRS SH NRT TCC SMPD ADLT SNR YAD,0,OK,"408 1st St NW, Mason City, IA 50401, USA",ChIJVftTcxIH8YcRUu8dR1yP8aw,ROOFTOP,43.1528695,-93.207763
84,Mediapolis Care Facility,(319) 394-3432,142 North Orchard Street P.O. Box 129,Mediapolis,Iowa,52637,MH SUMH RES RTCA AT BMT CBT DBT PTM PVTP CLF CMHG CSBG ITU MC MD MI OSF PI SCJJ SEF SF SI SMHA SWFS VAF SMI DEC HS SH SMPD ADLT SNR YAD,0,OK,"142 N Orchard St, Mediapolis, IA 52637, USA",ChIJC3hkqbxL4YcRpm8mDZOHpj0,ROOFTOP,41.0085354,-91.1638342
85,Behavioral Services,(712) 642-2045,704 North 8th Street,Missouri Valley,Iowa,51555,MH OP TELE OMH CBT CFT DBT GT IPT PTM TT PVTN MC MD MI PI SF SI CDM COOT ES FPSY IMR SMON ADLT CHLD SNR YAD,0,OK,"704 N 8th St, Missouri Valley, IA 51555, USA",ChIJNX26B9ukk4cRtFZjIXkoEw0,ROOFTOP,41.5629006,-95.8849678
86,Hillcrest Family Services  Henry County Mental Health Center,(319) 385-7177,106 North Jackson Street,Mount Pleasant,Iowa,52641,MH SUMH OP TELE CMHC CBT CFT DBT IPT PTM TT CIT PVTN CLF CMHG CSBG MC MD MI OSF PI SCJJ SF SI SMHA SWFS COOT SPS STU SMON ADLT CHLD SNR YAD SP,0,OK,"106 N Jackson St, Mt Pleasant, IA 52641, USA",ChIJqUC1R4-V5ocR0Xtp818Gp1o,ROOFTOP,40.9676251,-91.55532559999999
87,Heritage Residence,(641) 394-2391,2275 South Linn Avenue P.O. Box 110,New Hampton,Iowa,50659,MH SUMH RES RTCA AT BMT CBT PTM PVTN CLF MD SF SE GL VET ADM MF CJ CO HV TRMA TBI PED PTSD SMI IPC PRS SMPD ADLT SNR YAD,0,OK,"2275 S Linn Ave, New Hampton, IA 50659, USA",ChIJ5-CYKJeF-ocRwfxExY4WD8w,ROOFTOP,43.0258906,-92.318598
88,Capstone Behavioral Healthcare Inc,(641) 792-4012,1123 1st Avenue East Suite 200,Newton,Iowa,50208,MH SUMH OP CMHC AT BMT CBT CFT DBT GT IPT PTM TT WI PVTN CLF CSBG MC MD MI PI SF SI SMHA SWFS VAF SMI CM COOT ICM SPS PEER STU TCC SMPD ADLT CHLD SNR YAD,0,OK,"1123 1st Ave E #200, Newton, IA 50208, USA",EioxMTIzIDFzdCBBdmUgRSAjMjAwLCBOZXd0b24sIElBIDUwMjA4LCBVU0EiHxodChYKFAoSCd9WnO_qHO-HEUtvYGGF7UvwEgMyMDA,ROOFTOP,41.6988919,-93.03923400000001
89,Northeast Iowa Mental Health Center,(319) 283-5774,36 South Frederick Avenue,Oelwein,Iowa,50662,MH SUMH OP TELE CMHC CBT CFT DBT GT IDD IPT PVTN CLF CMHG CSBG MC MD MI OSF PI SCJJ SEF SF SI SMHA SWFS SS CM COOT ICM STU SMON ADLT CHLD SNR YAD AH,0,OK,"36 S Frederick Ave, Oelwein, IA 50662, USA",ChIJO5bq9LPQ-ocRCSTNg47OHMA,ROOFTOP,42.6772247,-91.9136832
90,Burgess Health Center Burgess Mental Health,(712) 423-9160,1600 Diamond Street,Onawa,Iowa,51040,MH OP TELE OMH AT BMT CBT CFT DBT GT IPT PTM TT WI PVTN CLF CMHG CSBG MC MD MI OSF PI SF SI VAF SED SMI ACT COOT FPSY ICM PRS SPS SMON ADLT CHLD SNR YAD,0,OK,"1600 Diamond St, Onawa, IA 51040, USA",ChIJu7elOAM_kocRV73NtHE7LPo,ROOFTOP,42.0253229,-96.10573130000002
91,Plains Area Mental Health Center,(712) 546-4624,400 Cent Avenue NW,Orange City,Iowa,51041,MH SUMH OP TELE CMHC BMT CBT CFT DBT GT IDD IPT PTM TT CIT PVTN CLF CMHG CSBG MC MD MI OSF PI SF SI CM ES IPC STU SMON ADLT CHLD SNR YAD AH,0,OK,"400 Central Ave NW, Orange City, IA 51041, USA",ChIJkZ3S9lG1jYcRFuwlJm4eWAk,ROOFTOP,43.0095816,-96.05881529999999
92,Children and Families of Iowa,(641) 342-3444,105 East McLane Street Suite 400,Osceola,Iowa,50213,MH SUMH OP OMH BMT CBT CFT DBT IPT TT PVTN MD MI PI SF SI SS COOT FPSY SMON ADLT CHLD SNR YAD,0,OK,"105 E McLane St #400, Osceola, IA 50213, USA",EiwxMDUgRSBNY0xhbmUgU3QgIzQwMCwgT3NjZW9sYSwgSUEgNTAyMTMsIFVTQSIfGh0KFgoUChIJM9hxH-3i64cRi0WysvibnIMSAzQwMA,ROOFTOP,41.0307994,-93.765056
93,Crossroads Behavioral Health Services,(641) 342-4888,405 East McLane Street,Osceola,Iowa,50213,MH SUMH OP TELE CMHC AT BMT CBT CFT DBT GT IDD IPT PTM TT CIT WI PVTN FQHC CLF CMHG CSBG MC MD MI OSF PI SCJJ SF SI SMHA SWFS VAF PA SS TAY SE GL VET ADM MF CJ CO HV TRMA TBI ALZ PED PTSD SED SMI CM COOT ES FPSY SPS PEER STU TCC SMON ADLT CHLD SNR YAD AH,0,OK,"405 E McLane St, Osceola, IA 50213, USA",ChIJL5AeLpLi64cR3E_LmMqkVOk,ROOFTOP,41.0308255,-93.7594203
94,First Resources Corporation Mental Health Therapy,(641) 673-1421,117 1st Avenue West,Oskaloosa,Iowa,52577,MH OP OMH BMT CBT CFT DBT GT IDD IPT TT PVTN CLF MD PI SCJJ SEF SF SI SMHA SWFS SS TRMA PTSD FPSY SMPD ADLT CHLD SNR YAD AH,0,OK,"117 1st Ave W, Oskaloosa, IA 52577, USA",ChIJLw4NE6ZN74cRYL5V_GwJXrI,ROOFTOP,41.2948173,-92.6475904
95,Southern Iowa Mental Health Center,(641) 672-3159,1229 C Avenue East Suite 400,Oskaloosa,Iowa,52577,MH SUMH OP TELE CMHC BMT CBT CFT DBT GT IDD IPT PTM TT CIT PVTN CLF CSBG MC MD MI PI SF SI SMHA SWFS VAF PA SS TAY SE GL CO TRMA PTSD SED SMI COOT ES FPSY SPS STU SMON ADLT CHLD SNR YAD AH,0,OK,"1229 C Ave E #400, Oskaloosa, IA 52577, USA",EisxMjI5IEMgQXZlIEUgIzQwMCwgT3NrYWxvb3NhLCBJQSA1MjU3NywgVVNBIh8aHQoWChQKEgndwAq4mk3vhxFcGc15pgB0NRIDNDAw,ROOFTOP,41.2995262,-92.6297829
96,First Resources Corporation Mental Health Services,(641) 682-2800,102 North Hancock Street,Ottumwa,Iowa,52501,MH SUMH OP OMH CBT CFT DBT GT IDD IPT TT PVTN CLF MD PI SCJJ SF SWFS SS COOT SMPD ADLT CHLD SNR YAD AH,0,OK,"102 N Hancock St, Ottumwa, IA 52501, USA",ChIJLeHy0oge5ocRSvvMKH08lwI,ROOFTOP,41.002113,-92.416055
97,Southern Iowa Mental Health Center,(641) 682-8772,1527 Albia Road,Ottumwa,Iowa,52501,MH SUMH OP TELE CMHC BMT CBT CFT DBT GT IDD IPT PTM TT CIT WI PVTN CLF CMHG CSBG MC MD MI PI SF SI SMHA SWFS VAF PA SS TAY SE GL CO TRMA PTSD SED SMI ACT CM COOT ES FPSY ICM SPS PEER STU SMPD ADLT CHLD SNR YAD AH SP,0,OK,"1527 Albia Rd, Ottumwa, IA 52501, USA",ChIJca8X5JQf5ocREf3ZQcfTGVg,ROOFTOP,41.0104666,-92.44516139999999
98,Pine Rest Christian Mental Health,(641) 628-9599,2611 Washington Street,Pella,Iowa,50219,MH SUMH OP TELE OMH AT BMT CBT CFT DBT GT IPT PTM TT PVTN FQHC CLF CMHG CSBG MC MD MI OSF PI SCJJ SEF SF SI SMHA SWFS VAF SE VET TRMA PED COOT FPSY SPS SMON ADLT CHLD SNR YAD AH,0,OK,"2611 Washington St, Pella, IA 50219, USA",ChIJG3P7F1wl74cRczcr0_2ojZA,ROOFTOP,41.4091032,-92.953874
99,Genesis Development Mental Health Program,(515) 465-7541,610 10th Street,Perry,Iowa,50220,MH OP OMH BMT CBT CFT DBT GT IDD IPT PTM TT WI PVTN CLF MC MD MI PI SF SI SWFS VAF PA GL VET ADM MF CJ CO TRMA PTSD COOT SPS NRT NSC STU TCC SMON ADLT CHLD SNR YAD AH SP,0,OK,"610 10th St, Perry, IA 50220, USA",ChIJY33p5sZK7IcR5GYPpbH9fQo,ROOFTOP,41.833395,-94.09298679999999
100,Creative Living Center PC,(712) 476-5245,1905 10th Street,Rock Valley,Iowa,51247,MH OP CMHC AT CBT CFT DBT GT IPT PTM TT CIT PVTP CLF CMHG MC MD MI PI SCJJ SEF SF SI SMHA SWFS SS TAY SE TRMA PTSD SED SMI COOT ES SMPD ADLT CHLD SNR YAD SP,0,OK,"1905 10th St, Rock Valley, IA 51247, USA",ChIJ1Ut8J1IkjIcRk_SgyKj4u6I,ROOFTOP,43.2003032,-96.2894269
101,Counseling Services LLC,(712) 662-3222,322 South 13th Street,Sac City,Iowa,50583,MH SUMH OP OMH CBT CFT IDD IPT PTM TT WI PVTP CLF CMHG CSBG ITU MC MD MI OSF PI SCJJ SF SI SMHA SWFS VAF PA SS COOT SPS SMPD ADLT CHLD SNR YAD,0,OK,"322 S 13th St, Sac City, IA 50583, USA",ChIJm2oK375V7YcRGd2por7M23o,ROOFTOP,42.4187295,-95.0001472
102,Seasons Center for Behavioral Health OBrien County Office,(800) 242-5101,112 North 2nd Avenue,Sheldon,Iowa,51201,MH SUMH OP TELE CMHC CBT CFT DBT GT IDD IPT PTM TT CIT WI PVTN CLF MC MD MI PI SF SI VAF SS ACT CM COOT SPS SMON ADLT CHLD SNR YAD,0,OK,"112 N 2nd Ave, Sheldon, IA 51201, USA",ChIJY9yCr31ajIcRvDJJecbDTFQ,ROOFTOP,43.1867107,-95.85447049999999
103,Seasons Center for Behavioral Health Osceola County Office,(800) 242-5101,600 9th Avenue North,Sibley,Iowa,51249,MH SUMH OP CMHC CBT CFT DBT IDD IPT TT PVTN CLF CMHG MC MD MI OSF PI SF SI VAF SS COOT SPS SMON ADLT CHLD SNR YAD,0,OK,"600 9th Ave N, Sibley, IA 51249, USA",ChIJX8GI7vBhjIcRMkCSv-JdWTo,ROOFTOP,43.41034030000001,-95.7422072
104,First Resources Corporation Outpatient Mental Health Program,(641) 622-2543,102 South Main Street,Sigourney,Iowa,52591,MH SUMH OP OMH AT BMT CBT CFT DBT GT IDD IPT TT PVTN CLF CSBG MC MD MI OSF PI SCJJ SEF SF SI SMHA SWFS VAF SS GL CO TRMA PED PTSD SMI DEC ES FPSY PRS SPS SMON ADLT CHLD SNR YAD AH,0,OK,"102 S Main St, Sigourney, IA 52591, USA",ChIJYx9wwEnh5YcRoEbrv90mXHA,ROOFTOP,41.3335377,-92.20534239999999
105,Boys and Girls Home and Family Services Inc,(712) 293-4700,2101 Court Street,Sioux City,Iowa,51104,MH OP RES RTCC CBT CFT DBT GT IPT PTM PVTN MD PI SF SED ES SMON CHLD,0,OK,"2101 Court St, Sioux City, IA 51104, USA",ChIJQephNUP9jYcRDofVbPBPjWk,GEOMETRIC_CENTER,42.5131307,-96.3967557
106,Catholic Charities Diocese of Sioux City,(712) 252-4547,1601 Military Road,Sioux City,Iowa,51103,MH OP OMH BMT CBT CFT GT IPT TT CIT PVTN CLF MC MD PI SCJJ SF SI SWFS PA SS CJ TRMA PTSD COOT ES FPSY SMON ADLT CHLD SNR YAD SP,0,OK,"1601 Military Rd, Sioux City, IA 51103, USA",ChIJvVfqCcIHjocRRDaOMi7jNKE,ROOFTOP,42.5137061,-96.4290984
107,Siouxland Mental Health Center,(712) 252-3871,625 Court Street,Sioux City,Iowa,51101,WE-CARE MH SUMH OP TELE CMHC BMT CBT CFT DBT GT IPT PTM TT CIT WI PVTN CLF CMHG CSBG ITU MC MD MI PI SCJJ SEF SF SI SMHA SWFS VAF PA SS TAY SE GL VET ADM MF CJ CO HV TRMA TBI ALZ PED PTSD SED SMI CDM CM COOT ES FPSY ICM PRS SPS PEER NRT NSC STU TCC SMON,0,OK,"625 Court St, Sioux City, IA 51101, USA",ChIJOaIRmXD9jYcRuuzV2e396IA,ROOFTOP,42.4965989,-96.3967141
108,Catholic Charities Diocese of Sioux City,(712) 580-4320,607 1st Avenue West,Spencer,Iowa,51301,MH OP OMH BMT CBT CFT DBT IPT TT CIT PVTN CLF MC MD PI SCJJ SF SI SWFS PA SS TRMA PTSD COOT ES SMON ADLT CHLD SNR YAD,0,OK,"607 1st Ave W, Spencer, IA 51301, USA",ChIJe55U-1bRjIcRNtuNczq-XXQ,ROOFTOP,43.1435871,-95.14648509999999
109,Seasons Center for Behavioral Health Clay County Office,(800) 242-5101,201 East 11th Street,Spencer,Iowa,51301,MH SUMH OP TELE CMHC CBT CFT DBT GT IDD IPT PTM TT CIT WI PVTN CLF CMHG MC MD MI OSF PI SCJJ SF SI SMHA SWFS VAF SS VET ADM MF ACT CM COOT SPS SMON ADLT SNR YAD SP,0,OK,"201 E 11th St, Spencer, IA 51301, USA",ChIJ7TMjZ-LTjIcRSlwqzwfMJtQ,ROOFTOP,43.1493502,-95.1421888
110,Spencer Municipal Hospital Behavioral Health Services,(712) 264-6198,1200 1st Avenue East,Spencer,Iowa,51301,MH SUMH HI PSY AT DBT GT PTM LMG MC MD MI PI SF SI CO SMI DEC SPS NRT NSC STU TCC SMON ADLT SNR YAD AH,0,OK,"1200 1st Ave E, Spencer, IA 51301, USA",ChIJ2Re2nVjRjIcRqh8Svx_0uQQ,ROOFTOP,43.149637,-95.1433697
111,Seasons Center for Behavioral Health Dickinson County Office,(800) 242-5101,1401 Hill Avenue,Spirit Lake,Iowa,51360,MH OP CMHC CBT CFT DBT GT IPT TT PVTN CLF CMHG MC MD MI OSF PI SF SI SMHA VAF SS COOT SPS SMON ADLT CHLD SNR YAD,0,OK,"1401 Hill Ave, Spirit Lake, IA 51360, USA",ChIJR4vYiF-0jIcRa9dNzdHs-U4,ROOFTOP,43.42623469999999,-95.101787
112,Buena Vista Regional Medical Center,(712) 213-8657,1525 West 5th Street,Storm Lake,Iowa,50588,MH HI PSY AT BMT CBT IPT PTM LMG MC MD PI SF SI SE ALZ CM DEC IPC NRT NSC STU TCC SMON SNR SP,0,OK,"1525 W 5th St, Storm Lake, IA 50588, USA",ChIJF2PPn3VPjYcRy-MA68Ys6DU,ROOFTOP,42.6445048,-95.220777
113,Plains Area Mental Health Center,(712) 213-8402,728 Erie Street,Storm Lake,Iowa,50588,MH SUMH OP TELE CMHC AT BMT CBT CFT DBT GT IDD IPT PTM TT CIT WI PVTN CLF CMHG CSBG MC MD MI OSF PI SF SI CM COOT ES FPSY IPC STU SMPD ADLT CHLD SNR YAD AH,0,OK,"728 Erie St, Storm Lake, IA 50588, USA",ChIJ7TghexZPjYcRtFVw-9VHJMA,ROOFTOP,42.6464449,-95.1999615
114,Abbe Ctr for Comm Mental Health Benton County,(319) 472-5226,309 1st Avenue,Vinton,Iowa,52349,MH SUMH OP CMHC CBT CFT IPT PTM TT PVTN CLF CMHG CSBG MC MD MI PI SCJJ SF PEER STU SMPD ADLT CHLD SNR YAD,0,OK,"309 1st Ave, Vinton, IA 52349, USA",ChIJK8te2RwX5YcRUZ4aydKLciI,ROOFTOP,42.1682292,-92.0245831
115,Hillcrest Family Services Hillcrest Mental Health Center,(319) 527-4455,218 North 2nd Street,Wapello,Iowa,52653,MH SUMH OP TELE CMHC BMT CBT CFT DBT GT IPT PTM TT CIT PVTN CLF CMHG CSBG MC MD MI OSF PI SCJJ SF SI SMHA SWFS VAF COOT ES FPSY SPS STU TCC SMON ADLT CHLD SNR YAD AH,0,OK,"218 N 2nd St, Wapello, IA 52653, USA",ChIJiyv1Q25T4YcRhUIGs6Gpxu0,ROOFTOP,41.1808963,-91.1848795
116,Hillcrest Family Services Washington County MH Center,(319) 653-6161,2175 Lexington Boulevard Building 2,Washington,Iowa,52353,MH SUMH OP TELE CMHC CBT CFT DBT GT IPT PTM TT CIT WI PVTN CLF CMHG CSBG MC MD MI OSF PI SCJJ SF SI SMHA SWFS COOT SPS STU SMON ADLT CHLD SNR YAD SP,0,OK,"2175 Lexington Blvd Building 2, Washington, IA 52353, USA",EjkyMTc1IExleGluZ3RvbiBCbHZkIEJ1aWxkaW5nIDIsIFdhc2hpbmd0b24sIElBIDUyMzUzLCBVU0EiJhokChYKFAoSCWvs-loPKeSHETZA5mnXtWZLEgpCdWlsZGluZyAy,ROOFTOP,41.3098692,-91.7225069
117,Black Hawk Grundy MH Center Inc Outpatient,(319) 234-2893,3251 West 9th Street,Waterloo,Iowa,50702,MH SUMH OP TELE CMHC BMT CBT CFT GT IPT PTM TT WI PVTN CLF CMHG CSBG MC MD MI OSF PI SCJJ SEF SF SI SMHA SWFS VAF PA SS SED SMI CDM CM COOT ES FPSY ICM IMR IPC PRS SPS PEER NRT NSC STU SMPD ADLT CHLD SNR YAD AH,0,OK,"3251 W 9th St, Waterloo, IA 50702, USA",ChIJI2ydm8tT5YcR1WtiS_vq1k0,ROOFTOP,42.4640898,-92.34469999999999
118,MercyOne Waterloo Medical Center Behavioral Health,(319) 272-8000,3421 West 9th Street,Waterloo,Iowa,50702,MH SUMH HI PSY AT CBT DBT GT IDD IPT PTM TT WI PVTN CLF CMHG CSBG ITU MC MD MI OSF PI SCJJ SEF SF SI SMHA SWFS VAF TAY GL VET ADM MF CJ CO HV TRMA TBI PTSD SED SMI CDM CM DEC ES IMR IPC SPS NRT STU TCC SMON ADLT CHLD SNR YAD AH,0,OK,"3421 W 9th St, Waterloo, IA 50702, USA",ChIJ7WFCL8xT5YcRcY1_RHd13mc,GEOMETRIC_CENTER,42.4614133,-92.3462029
119,Northeast Iowa Mental Health Center Allamakee Office,(563) 382-3649,17 Allamakee Street,Waukon,Iowa,52172,MH SUMH OP CMHC CBT CFT DBT IDD IPT TT PVTN CLF CMHG CSBG MC MD MI OSF PI SCJJ SEF SF SI SWFS SS COOT STU SMON ADLT CHLD SNR YAD AH,0,OK,"17 Allamakee St NW, Waukon, IA 52172, USA",ChIJJR62BBuZ-4cRtROZ0rmP-hc,ROOFTOP,43.26984239999999,-91.4752709
120,Lutheran Services in Iowa Inc Bremwood Campus,(319) 352-2630,106 16th Street SW,Waverly,Iowa,50677,MH SUMH OP RES RTCC AT BMT CBT CFT GT IPT PTM TT PVTN CLF MD OSF PI SCJJ SF SI SMHA SWFS CJ TRMA PTSD SED CM ES FPSY IPC SMON CHLD AH,0,OK,"106 16th St SW, Waverly, IA 50677, USA",ChIJEe_tza0J8IcRefYfSEA1ifM,ROOFTOP,42.723904,-92.49231999999999
121,Integrative Counseling Solutions Inc,(515) 267-1340,1200 Valley West Drive Suite 508,West Des Moines,Iowa,50266,MH OP TELE OMH BMT CBT CFT DBT IPT PTM TT PVTP CLF CMHG CSBG MD MI PI SEF SF SPS SMON ADLT CHLD SNR YAD,0,OK,"1200 Valley W Dr #508, West Des Moines, IA 50266, USA",EjUxMjAwIFZhbGxleSBXIERyICM1MDgsIFdlc3QgRGVzIE1vaW5lcywgSUEgNTAyNjYsIFVTQSIfGh0KFgoUChIJgcbVTIUg7IcRSha69fpaAl4SAzUwOA,ROOFTOP,41.5899192,-93.7527933
122,Crossroads Behavioral Health Services,(515) 462-3105,102 West Summitt Street,Winterset,Iowa,50273,MH SUMH OP TELE CMHC BMT CBT CFT DBT GT IDD IPT PTM TT CIT PVTN CLF CMHG CSBG MC MD MI OSF PI SCJJ SF SI SMHA SWFS PA SS TAY CO TRMA PTSD SED SMI CM COOT FPSY PRS SPS STU TCC SMON ADLT CHLD SNR YAD SP,0,OK,"102 W Summit St, Winterset, IA 50273, USA",ChIJjQ4c60wM7IcR9mwLeGxB10g,ROOFTOP,41.3299273,-94.0147569
